PRATHAM
1 41783U 16059A   19212.75569857  .00000037  00000-0  16455-4 0  9996
2 41783  98.0645 271.3803 0032291 247.6574 112.1205 14.63001556151845
PRISMA (TANGO)
1 36827U 10028F   19212.53486148 +.00000006 +00000-0 +15283-4 0  9990
2 36827 098.5251 027.7284 0041773 231.2129 128.5326 14.42404707340478
PROMETHEUS 2-7
1 44374U 19037K   19213.09054076 -.00000336  00000-0  00000+0 0  9991
2 44374  45.0143 107.0369 0007808 126.0970 234.1160 15.37432218  4877
RADIO ROSTO
1 23439U 94085A   19212.88572804 -.00000035 +00000-0 +20933-3 0  9993
2 23439 064.8177 046.2739 0146152 104.8109 256.9056 11.27568637012764
RADIX
1 43550U 98067NY  19212.37111300  .00021347  00000-0  19700-3 0  9995
2 43550  51.6353 121.0312 0003143 330.8921  29.1899 15.67536891 59855
RAINCUBE
1 43548U 98067NW  19212.91801403 +.00007517 +00000-0 +89842-4 0  9990
2 43548 051.6373 124.7313 0004524 303.8845 056.1719 15.62136115059833
RED-EYE
1 44364U 98067QJ  19212.93751390 +.00001646 +00000-0 +35039-4 0  9994
2 44364 051.6430 139.1289 0007350 205.3351 154.7265 15.51530910005385
SAPPHIRE
1 39088U 13009C   19212.51754012 -.00000022 +00000-0 +75148-5 0  9996
2 39088 098.4955 054.9654 0011830 155.6939 204.4806 14.34194631336332
SAUDISAT 1C
1 27607U 02058C   19212.78688141 -.00000033  00000-0  16296-4 0  9990
2 27607  64.5547 277.8390 0079750 248.2333 111.0269 14.75561672893390
SENTINEL 3B
1 43437U 18039A   19213.13691447  .00000000  00000-0  18236-4 0  9997
2 43437  98.6274 279.4183 0001610  84.1484 275.9880 14.26736789 65924
SIRIUS 3
1 25492U 98056B   19213.05139598 -.00000147  00000-0  00000+0 0  9998
2 25492   7.6296  49.1878 0003981 347.8661  37.8062  0.99033843 76139
SIRIUSSAT-1
1 43595U 98067PG  19212.58870533 +.00009413 +00000-0 +11246-3 0  9994
2 43595 051.6366 127.7671 0002427 274.8127 085.2590 15.61786244054543
SIRIUSSAT-2
1 43596U 98067PH  19212.81540738  .00009294  00000-0  11178-3 0  9993
2 43596  51.6376 127.0699 0002970 275.2760  84.7895 15.61631120 54576
SKYNET 5D
1 39034U 12075A   19212.89707567 +.00000089 +00000-0 +00000-0 0  9995
2 39034 000.0798 343.2607 0003337 163.4898 178.1825 01.00275066023975
SOCRATES
1 39768U 14029C   19204.58435010  .00000095  00000-0  17656-4 0  9994
2 39768  97.8679 301.0291 0006631 353.8123   6.3008 14.84361710279716
SOLRAD 1 (GREB)
1    46U 60007B   19212.94546673 -.00000043 +00000-0 +14727-4 0  9995
2    46 066.6889 195.2308 0209037 008.7128 351.7516 14.49235046092524
SPEKTR R
1 37755U 11037A   18264.20000000 +.00000083 +00000-0 +00000-0 0  9993
2 37755 051.5880 113.3680 8331057 181.9940 359.9340 00.11829941003008
SPIRALE B
1 33752U 09008D   19212.75929034 +.00001216 +00000-0 +24932-3 0  9994
2 33752 002.1396 320.6363 6918731 113.3207 330.9468 02.74908119095882
SPOOQY1
1 44332U 98067QH  19212.84909391  .00004638  00000-0  81957-4 0  9999
2 44332  51.6410 139.2987 0005346 245.1057 114.9377 15.52447120  6915
STARLINK
1 44235U 19029A   19212.55303806 -.00000231 +00000-0 +32825-5 0  9996
2 44235 052.9983 224.9799 0001636 199.1312 160.9615 15.05485473011585
STARLINK
1 44259U 19029AA  19212.48999919 +.00000794 +00000-0 +29233-4 0  9991
2 44259 053.0024 211.5887 0000494 017.3817 342.7203 15.40298091010513
TACSAT 4
1 37818U 11052A   19212.87645854 +.00000019 +00000-0 +82188-4 0  9999
2 37818 063.2081 343.3980 4589386 221.1191 332.7314 06.02816963172531
TECHEDSAT 8
1 44032U 98067PY  19212.32158582 +.00020799 +00000-0 +24804-3 0  9990
2 44032 051.6380 135.0201 0002594 324.4768 035.6053 15.61025326028209
TEMPEST-D
1 43547U 98067NV  19213.40508340  .00003735  00000-0  54894-4 0  9995
2 43547  51.6389 127.2543 0004943 292.9264  67.1206 15.58284677 59396
TERRA
1 25994U 99068A   19213.41507758  .00000022  00000-0  14998-4 0  9993
2 25994  98.2039 287.2989 0000939  93.2353 266.8944 14.57114165 43565
THEMIS A
1 30580U 07004A   19212.47220783  .00000021  00000-0  00000+0 0  9997
2 30580   9.8800  85.0079 8388259 318.0317   2.3194  0.87837462 43874
THEMIS D
1 30797U 07004D   19212.65254476  .00000004  00000-0  00000+0 0  9994
2 30797   8.6995  49.0001 8590864 359.1646   0.3302  0.71849998 43722
TIROS 1
1    29U 60002B   19212.95331269 -.00000165  00000-0  64566-5 0  9997
2    29  48.3808  25.8253 0024422 296.5637  63.2772 14.74312041171217
UBAKUSAT
1 43466U 98067NP  19213.15880040  .00015746  00000-0  14772-3 0  9992
2 43466  51.6374 113.6000 0000370  73.9588 286.1449 15.67375073 69735
UNITE
1 44031U 98067PX  19213.31841333  .00004537  00000-0  70706-4 0  9997
2 44031  51.6393 133.4293 0002753 316.8019  43.2756 15.56057651 28335
VANGUARD 2
1    11U 59001A   19213.15812223 -.00000059  00000-0 -52262-4 0  9994
2    11  32.8743 181.6072 1468485 237.7588 107.2315 11.85613428578572
VANGUARD 3
1    20U 59007A   19213.32979749  .00000163  00000-0  67665-4 0  9993
2    20  33.3425 246.0534 1667057   3.2833 357.7299 11.55668570193479
XMM
1 25989U 99066A   19215.45802183 -.00000051  00000-0  00000+0 0  9998
2 25989  71.0162 330.7879 7556583  94.8131   0.6076  0.50136907 24785
YAOGAN 27
1 40878U 15040A   19212.86388587 -.00000044  00000-0  00000+0 0  9993
2 40878 100.2842 265.9692 0008111 236.4298 123.6057 13.15962457188712
